STARLINK-36839          
1 68125U 26044AA  26095.25002315  .00163299  00000+0  29491-2 0  9994
2 68125  97.2858  56.5989 0001815  95.4680 299.0449 15.49123831  5629
ECHOSTAR 25             
1 68126U 26045A   26095.24280675  .00000059  00000+0  00000+0 0  9998
2 68126   0.0337 281.7974 0001785 154.0499  76.2518  1.00271198   265
ICOR SV                 
1 68127U 26046A   26095.27228925  .00587974  12328-4  63814-3 0  9996
2 68127 123.0716 327.7655 0084596 238.8476 120.4285 16.02062968  3837
FIREFLY ALPHA R/B       
1 68128U 26046B   26095.28342305  .00044011  00000+0  57717-3 0  9991
2 68128 123.0916 322.3418 0017507  31.7180 328.4932 15.57987179  3780
GUOWANG GROUP 20 OBJECT*
1 68129U 26047A   26094.10011014 -.00000088  00000+0  50705-4 0  9991
2 68129  50.0020 327.8486 0000660 106.3931 253.7037 13.82826474  3126
GUOWANG GROUP 20 OBJECT*
1 68130U 26047B   26091.21157936 -.00000062  00000+0  69791-4 0  9993
2 68130  50.0054 339.2252 0000133 185.6237 174.4659 13.87767313  2711
GUOWANG GROUP 20 OBJECT*
1 68131U 26047C   26092.50577046 -.00000096  00000+0  42136-4 0  9996
2 68131  50.0019 334.0677 0000669 236.5521 123.5312 13.86320500  2907
GUOWANG GROUP 20 OBJECT*
1 68132U 26047D   26092.57516225 -.00000084  00000+0  51916-4 0  9999
2 68132  50.0067 333.7806 0000710 245.0360 115.0463 13.86594040  2909
GUOWANG GROUP 20 OBJECT*
1 68133U 26047E   26093.00475373 -.00000089  00000+0  48671-4 0  9996
2 68133  50.0078 332.0369 0000826  23.1230 336.9704 13.85521979  2976
GUOWANG GROUP 20 OBJECT*
1 68134U 26047F   26092.56694514 -.00000033  00000+0  95092-4 0  9995
2 68134  50.0093 333.7419 0000629 256.4099 103.6728 13.87190720  2909
GUOWANG GROUP 20 OBJECT*
1 68135U 26047G   26094.44545227  .00000018  00000+0  14576-3 0  9990
2 68135  50.0135 326.3688 0000767 146.6368 213.4577 13.83778399  3177
GUOWANG GROUP 20 OBJECT*
1 68136U 26047H   26092.49226754 -.00000088  00000+0  48251-4 0  9991
2 68136  50.0086 334.0113 0000909 305.9014  54.1799 13.87381469  2894
